{
  "norad_id": 43880,
  "name": "UWE-4",
  "history": [
    {
      "epoch": "2026-03-28T18:29:45.153600Z",
      "apogee_km": 446.49609071815667,
      "perigee_km": 438.39610264420025,
      "latitude_deg": 2.8746167358150907e-06,
      "longitude_deg": -90.85607489262755,
      "height_km": 447.13448787155386,
      "semi_major_axis_km": 6820.583096681178,
      "eccentricity": 0.00059379,
      "inclination_deg": 97.585,
      "raan_deg": 12.7684,
      "arg_perigee_deg": 247.2202,
      "mean_anomaly_deg": 112.8417,
      "mean_motion_rev_day": 15.41240829
    }
  ]
}